{"type": "FeatureCollection", "features": [ {"type": "Feature", "properties": {"norad_id": 34464, "name": "COSMOS 2251 DEB", "group": "cosmos-2251-debris", "lat": -60.46540073863699, "lon": -51.229034633572965, "alt_km": 486.90698226965833, "timestamp": "2025-12-03T06:58:43.636435+00:00", "meta": {"OBJECT_NAME": "COSMOS 2251 DEB", "OBJECT_ID": "1993-036TH", "EPOCH": "2025-12-02T18:53:06.245376", "MEAN_MOTION": 15.24799264, "ECCENTRICITY": 0.0017438, "INCLINATION": 73.9897, "RA_OF_ASC_NODE": 99.3863, "ARG_OF_PERICENTER": 269.1995, "MEAN_ANOMALY": 90.7207, "EPHEMERIS_TYPE": 0, "CLASSIFICATION_TYPE": "U", "NORAD_CAT_ID": 34464, "ELEMENT_SET_NO": 999, "REV_AT_EPOCH": 89688, "BSTAR": 0.0035854, "MEAN_MOTION_DOT": 0.00090401, "MEAN_MOTION_DDOT": 0}, "tle": {"line1": "1 34464U 93036TH  25336.78687784  .00090401  00000+0  35854-2 0  9996", "line2": "2 34464  73.9897  99.3863 0017438 269.1995  90.7207 15.24799264896881"}}, "geometry": {"type": "Point", "coordinates": [-51.229034633572965, -60.46540073863699]}}, {"type": "Feature", "properties": {"norad_id": 34468, "name": "COSMOS 2251 DEB", "group": "cosmos-2251-debris", "lat": -66.99375662001779, "lon": -2.6197128094776785, "alt_km": 692.673910522315, "timestamp": "2025-12-03T06:58:43.636446+00:00", "meta": {"OBJECT_NAME": "COSMOS 2251 DEB", "OBJECT_ID": "1993-036TM", "EPOCH": "2025-12-02T19:51:18.844416", "MEAN_MOTION": 14.47582333, "ECCENTRICITY": 0.0076274, "INCLINATION": 74.0114, "RA_OF_ASC_NODE": 135.774, "ARG_OF_PERICENTER": 282.6893, "MEAN_ANOMALY": 76.5746, "EPHEMERIS_TYPE": 0, "CLASSIFICATION_TYPE": "U", "NORAD_CAT_ID": 34468, "ELEMENT_SET_NO": 999, "REV_AT_EPOCH": 88318, "BSTAR": 0.00039409, "MEAN_MOTION_DOT": 1.475e-05, "MEAN_MOTION_DDOT": 0}, "tle": {"line1": "1 34468U 93036TM  25336.82730144  .00001475  00000+0  39409-3 0  9998", "line2": "2 34468  74.0114 135.7740 0076274 282.6893  76.5746 14.47582333883188"}}, "geometry": {"type": "Point", "coordinates": [-2.6197128094776785, -66.99375662001779]}}, {"type": "Feature", "properties": {"norad_id": 34472, "name": "COSMOS 2251 DEB", "group": "cosmos-2251-debris", "lat": 25.607642663336275, "lon": 121.54905297735742, "alt_km": 1179.1340999638142, "timestamp": "2025-12-03T06:58:43.636456+00:00", "meta": {"OBJECT_NAME": "COSMOS 2251 DEB", "OBJECT_ID": "1993-036TR", "EPOCH": "2025-11-30T08:45:33.274080", "MEAN_MOTION": 13.70299802, "ECCENTRICITY": 0.03272305, "INCLINATION": 74.0853, "RA_OF_ASC_NODE": 118.499, "ARG_OF_PERICENTER": 252.162, "MEAN_ANOMALY": 104.3557, "EPHEMERIS_TYPE": 0, "CLASSIFICATION_TYPE": "U", "NORAD_CAT_ID": 34472, "ELEMENT_SET_NO": 999, "REV_AT_EPOCH": 83557, "BSTAR": 0.0011470938, "MEAN_MOTION_DOT": 1.453e-05, "MEAN_MOTION_DDOT": 0}, "tle": {"line1": "1 34472U 93036TR  25334.36496845  .00001453  00000+0  11471-2 0  9991", "line2": "2 34472  74.0853 118.4990 0327230 252.1620 104.3557 13.70299802835570"}}, "geometry": {"type": "Point", "coordinates": [121.54905297735742, 25.607642663336275]}}, {"type": "Feature", "properties": {"norad_id": 34474, "name": "COSMOS 2251 DEB", "group": "cosmos-2251-debris", "lat": 10.968437626246759, "lon": -14.155046835594122, "alt_km": 774.5666351020291, "timestamp": "2025-12-03T06:58:43.636466+00:00", "meta": {"OBJECT_NAME": "COSMOS 2251 DEB", "OBJECT_ID": "1993-036TT", "EPOCH": "2025-12-02T11:07:59.121408", "MEAN_MOTION": 14.06311344, "ECCENTRICITY": 0.01977211, "INCLINATION": 74.0785, "RA_OF_ASC_NODE": 344.1163, "ARG_OF_PERICENTER": 60.6093, "MEAN_ANOMALY": 87.8152, "EPHEMERIS_TYPE": 0, "CLASSIFICATION_TYPE": "U", "NORAD_CAT_ID": 34474, "ELEMENT_SET_NO": 999, "REV_AT_EPOCH": 85364, "BSTAR": 0.0018684246, "MEAN_MOTION_DOT": 3.655e-05, "MEAN_MOTION_DDOT": 0}, "tle": {"line1": "1 34474U 93036TT  25336.46387872  .00003655  00000+0  18684-2 0  9994", "line2": "2 34474  74.0785 344.1163 0197721  60.6093  87.8152 14.06311344853642"}}, "geometry": {"type": "Point", "coordinates": [-14.155046835594122, 10.968437626246759]}}, {"type": "Feature", "properties": {"norad_id": 34476, "name": "COSMOS 2251 DEB", "group": "cosmos-2251-debris", "lat": 72.63406232619795, "lon": -148.08083158708843, "alt_km": 1116.572083633646, "timestamp": "2025-12-03T06:58:43.636477+00:00", "meta": {"OBJECT_NAME": "COSMOS 2251 DEB", "OBJECT_ID": "1993-036TV", "EPOCH": "2025-12-02T07:55:37.516512", "MEAN_MOTION": 13.81874197, "ECCENTRICITY": 0.03188749, "INCLINATION": 74.0058, "RA_OF_ASC_NODE": 100.0469, "ARG_OF_PERICENTER": 321.9324, "MEAN_ANOMALY": 35.9644, "EPHEMERIS_TYPE": 0, "CLASSIFICATION_TYPE": "U", "NORAD_CAT_ID": 34476, "ELEMENT_SET_NO": 999, "REV_AT_EPOCH": 83494, "BSTAR": 0.003237471, "MEAN_MOTION_DOT": 5.092e-05, "MEAN_MOTION_DDOT": 0}, "tle": {"line1": "1 34476U 93036TV  25336.33029533  .00005092  00000+0  32375-2 0  9999", "line2": "2 34476  74.0058 100.0469 0318874 321.9324  35.9644 13.81874197834943"}}, "geometry": {"type": "Point", "coordinates": [-148.08083158708843, 72.63406232619795]}}, {"type": "Feature", "properties": {"norad_id": 34477, "name": "COSMOS 2251 DEB", "group": "cosmos-2251-debris", "lat": -33.09836620009205, "lon": 76.7095531737394, "alt_km": 673.6393235119731, "timestamp": "2025-12-03T06:58:43.636487+00:00", "meta": {"OBJECT_NAME": "COSMOS 2251 DEB", "OBJECT_ID": "1993-036TW", "EPOCH": "2025-12-02T18:31:01.530336", "MEAN_MOTION": 14.56736383, "ECCENTRICITY": 0.0076882, "INCLINATION": 73.9785, "RA_OF_ASC_NODE": 88.4938, "ARG_OF_PERICENTER": 277.4569, "MEAN_ANOMALY": 205.4532, "EPHEMERIS_TYPE": 0, "CLASSIFICATION_TYPE": "U", "NORAD_CAT_ID": 34477, "ELEMENT_SET_NO": 999, "REV_AT_EPOCH": 88480, "BSTAR": 0.0011822, "MEAN_MOTION_DOT": 5.475e-05, "MEAN_MOTION_DDOT": 0}, "tle": {"line1": "1 34477U 93036TW  25336.77154549  .00005475  00000+0  11822-2 0  9993", "line2": "2 34477  73.9785  88.4938 0076882 277.4569 205.4532 14.56736383884802"}}, "geometry": {"type": "Point", "coordinates": [76.7095531737394, -33.09836620009205]}}, {"type": "Feature", "properties": {"norad_id": 34478, "name": "COSMOS 2251 DEB", "group": "cosmos-2251-debris", "lat": -69.33056308343319, "lon": -23.020542809144406, "alt_km": 531.5510003711206, "timestamp": "2025-12-03T06:58:43.636497+00:00", "meta": {"OBJECT_NAME": "COSMOS 2251 DEB", "OBJECT_ID": "1993-036TX", "EPOCH": "2025-12-02T06:07:06.340800", "MEAN_MOTION": 15.06660198, "ECCENTRICITY": 0.0037359, "INCLINATION": 74.0425, "RA_OF_ASC_NODE": 28.4345, "ARG_OF_PERICENTER": 251.7178, "MEAN_ANOMALY": 175.1666, "EPHEMERIS_TYPE": 0, "CLASSIFICATION_TYPE": "U", "NORAD_CAT_ID": 34478, "ELEMENT_SET_NO": 999, "REV_AT_EPOCH": 88815, "BSTAR": 0.0034183, "MEAN_MOTION_DOT": 0.00051868, "MEAN_MOTION_DDOT": 0}, "tle": {"line1": "1 34478U 93036TX  25336.25493450  .00051868  00000+0  34183-2 0  9996", "line2": "2 34478  74.0425  28.4345 0037359 251.7178 175.1666 15.06660198888158"}}, "geometry": {"type": "Point", "coordinates": [-23.020542809144406, -69.33056308343319]}}, {"type": "Feature", "properties": {"norad_id": 34481, "name": "COSMOS 2251 DEB", "group": "cosmos-2251-debris", "lat": -72.74247666232029, "lon": -41.58904361901629, "alt_km": 741.6665342395518, "timestamp": "2025-12-03T06:58:43.636508+00:00", "meta": {"OBJECT_NAME": "COSMOS 2251 DEB", "OBJECT_ID": "1993-036UA", "EPOCH": "2025-12-02T08:13:58.755360", "MEAN_MOTION": 14.32481954, "ECCENTRICITY": 0.00709768, "INCLINATION": 73.9803, "RA_OF_ASC_NODE": 72.5025, "ARG_OF_PERICENTER": 248.7282, "MEAN_ANOMALY": 169.0457, "EPHEMERIS_TYPE": 0, "CLASSIFICATION_TYPE": "U", "NORAD_CAT_ID": 34481, "ELEMENT_SET_NO": 999, "REV_AT_EPOCH": 87300, "BSTAR": 0.00096471525, "MEAN_MOTION_DOT": 2.661e-05, "MEAN_MOTION_DDOT": 0}, "tle": {"line1": "1 34481U 93036UA  25336.34304115  .00002661  00000+0  96472-3 0  9996", "line2": "2 34481  73.9803  72.5025 0070976 248.7282 169.0457 14.32481954873006"}}, "geometry": {"type": "Point", "coordinates": [-41.58904361901629, -72.74247666232029]}}, {"type": "Feature", "properties": {"norad_id": 34482, "name": "COSMOS 2251 DEB", "group": "cosmos-2251-debris", "lat": -73.733740358569, "lon": 163.08200829687596, "alt_km": 643.9014048472363, "timestamp": "2025-12-03T06:58:43.636518+00:00", "meta": {"OBJECT_NAME": "COSMOS 2251 DEB", "OBJECT_ID": "1993-036UB", "EPOCH": "2025-12-02T20:14:54.517056", "MEAN_MOTION": 14.68801967, "ECCENTRICITY": 0.004586, "INCLINATION": 74.0377, "RA_OF_ASC_NODE": 242.7464, "ARG_OF_PERICENTER": 304.4863, "MEAN_ANOMALY": 125.7668, "EPHEMERIS_TYPE": 0, "CLASSIFICATION_TYPE": "U", "NORAD_CAT_ID": 34482, "ELEMENT_SET_NO": 999, "REV_AT_EPOCH": 88042, "BSTAR": 0.0029089, "MEAN_MOTION_DOT": 0.00017263, "MEAN_MOTION_DDOT": 0}, "tle": {"line1": "1 34482U 93036UB  25336.84368654  .00017263  00000+0  29089-2 0  9993", "line2": "2 34482  74.0377 242.7464 0045860 304.4863 125.7668 14.68801967880428"}}, "geometry": {"type": "Point", "coordinates": [163.08200829687596, -73.733740358569]}}, {"type": "Feature", "properties": {"norad_id": 34544, "name": "COSMOS 2251 DEB", "group": "cosmos-2251-debris", "lat": 72.94129545302883, "lon": -70.57781350123493, "alt_km": 1323.6756112983048, "timestamp": "2025-12-03T06:58:43.636529+00:00", "meta": {"OBJECT_NAME": "COSMOS 2251 DEB", "OBJECT_ID": "1993-036UE", "EPOCH": "2025-12-02T02:58:13.056672", "MEAN_MOTION": 13.54654027, "ECCENTRICITY": 0.03847802, "INCLINATION": 73.9153, "RA_OF_ASC_NODE": 221.2162, "ARG_OF_PERICENTER": 251.6007, "MEAN_ANOMALY": 264.6648, "EPHEMERIS_TYPE": 0, "CLASSIFICATION_TYPE": "U", "NORAD_CAT_ID": 34544, "ELEMENT_SET_NO": 999, "REV_AT_EPOCH": 82738, "BSTAR": 0.00020621286, "MEAN_MOTION_DOT": 2.02e-06, "MEAN_MOTION_DDOT": 0}, "tle": {"line1": "1 34544U 93036UE  25336.12376223  .00000202  00000+0  20621-3 0  9993", "line2": "2 34544  73.9153 221.2162 0384780 251.6007 264.6648 13.54654027827388"}}, "geometry": {"type": "Point", "coordinates": [-70.57781350123493, 72.94129545302883]}}]}